[{"OBJECT_NAME":"STARLINK-31047","OBJECT_ID":"2024-011U","EPOCH":"2026-03-09T01:01:16.690656","MEAN_MOTION":15.30194233,"ECCENTRICITY":8.666e-5,"INCLINATION":53.1608,"RA_OF_ASC_NODE":1.1321,"ARG_OF_PERICENTER":94.8099,"MEAN_ANOMALY":265.3001,"EPHEMERIS_TYPE":0,"CLASSIFICATION_TYPE":"U","NORAD_CAT_ID":58783,"ELEMENT_SET_NO":999,"REV_AT_EPOCH":12038,"BSTAR":2.9031072e-5,"MEAN_MOTION_DOT":5.01e-6,"MEAN_MOTION_DDOT":0},{"OBJECT_NAME":"DELTA 1 R\/B(1)","OBJECT_ID":"1977-118B","EPOCH":"2026-03-09T06:43:16.851360","MEAN_MOTION":13.47350406,"ECCENTRICITY":0.0814229,"INCLINATION":28.6551,"RA_OF_ASC_NODE":189.0759,"ARG_OF_PERICENTER":117.268,"MEAN_ANOMALY":251.3149,"EPHEMERIS_TYPE":0,"CLASSIFICATION_TYPE":"U","NORAD_CAT_ID":10517,"ELEMENT_SET_NO":999,"REV_AT_EPOCH":33790,"BSTAR":0.00036454259,"MEAN_MOTION_DOT":2.074e-5,"MEAN_MOTION_DDOT":0}]
